[{"OBJECT_NAME":"PRAETORIAN SDA_606","OBJECT_ID":"2025-203E","EPOCH":"2026-03-09T13:52:35.845824","MEAN_MOTION":13.83528814,"ECCENTRICITY":0.0007292,"INCLINATION":81.3028,"RA_OF_ASC_NODE":103.1011,"ARG_OF_PERICENTER":99.5197,"MEAN_ANOMALY":260.6784,"EPHEMERIS_TYPE":0,"CLASSIFICATION_TYPE":"U","NORAD_CAT_ID":65569,"ELEMENT_SET_NO":999,"REV_AT_EPOCH":2491,"BSTAR":0.0002082,"MEAN_MOTION_DOT":2.41e-6,"MEAN_MOTION_DDOT":0},{"OBJECT_NAME":"COSMOS 1634","OBJECT_ID":"1985-022A","EPOCH":"2026-03-09T23:52:25.491072","MEAN_MOTION":13.75319498,"ECCENTRICITY":0.00346363,"INCLINATION":82.9372,"RA_OF_ASC_NODE":289.2604,"ARG_OF_PERICENTER":315.0581,"MEAN_ANOMALY":159.1244,"EPHEMERIS_TYPE":0,"CLASSIFICATION_TYPE":"U","NORAD_CAT_ID":15597,"ELEMENT_SET_NO":999,"REV_AT_EPOCH":5656,"BSTAR":5.8514931e-5,"MEAN_MOTION_DOT":7.1e-7,"MEAN_MOTION_DDOT":0}]
